NORAD_CAT_ID,OBJECT_NAME,OBJECT_TYPE,EPOCH,MEAN_MOTION,ECCENTRICITY,INCLINATION,RA_OF_ASC_NODE,ARG_OF_PERICENTER,MEAN_ANOMALY,BSTAR,MEAN_MOTION_DOT,MEAN_MOTION_DDOT,TLE_LINE0,TLE_LINE1,TLE_LINE2,SEMIMAJOR_AXIS,PERIOD,APOGEE,PERIGEE,DECAYED
54159.0,STARLINK-5294,PAYLOAD,2023-02-22 01:42:58,15.08860773,0.0001128,53.2165,324.1748,81.6597,278.4523,0.00063444,9.829e-05,0.0,0 STARLINK-5294,1 54159U 22141C   23053.07151067  .00009829  00000-0  63444-3 0  9996,2 54159  53.2165 324.1748 0001128  81.6597 278.4523 15.08860773 17908,6917.817,95.436,540.462,538.902,0.0
54159.0,STARLINK-5294,PAYLOAD,2023-02-22 17:36:50,15.08831497,0.0001481,53.2181,321.2023,74.7486,285.367,-0.00017647,-3.095e-05,0.0,0 STARLINK-5294,1 54159U 22141C   23053.73392190 -.00003095  00000-0 -17647-3 0  9998,2 54159  53.2181 321.2023 0001481  74.7486 285.3670 15.08831497 18005,6917.906,95.438,540.796,538.747,0.0
54159.0,STARLINK-5294,PAYLOAD,2023-02-22 22:23:00,15.08827734,0.0001165,53.2175,320.3102,53.2968,306.8131,-7.014e-05,-1.404e-05,0.0,0 STARLINK-5294,1 54159U 22141C   23053.93264564 -.00001404  00000-0 -70140-4 0  9993,2 54159  53.2175 320.3102 0001165  53.2968 306.8131 15.08827734 18035,6917.918,95.438,540.589,538.977,0.0
54159.0,STARLINK-5294,PAYLOAD,2023-02-23 03:09:10,15.08831581,0.000141,53.2163,319.4153,78.4659,281.6491,3.8983e-05,3.32e-06,0.0,0 STARLINK-5294,1 54159U 22141C   23054.13136575  .00000332  00000-0  38983-4 0  9992,2 54159  53.2163 319.4153 0001410  78.4659 281.6491 15.08831581 18063,6917.906,95.438,540.747,538.796,0.0
54159.0,STARLINK-5294,PAYLOAD,2023-02-24 01:24:33,15.08869744,0.000156,53.2159,315.2521,79.7944,280.3224,0.0013452,0.00021203,0.0,0 STARLINK-5294,1 54159U 22141C   23055.05872091  .00021203  00000-0  13452-2 0  9996,2 54159  53.2159 315.2521 0001560  79.7944 280.3224 15.08869744 18206,6917.789,95.436,540.734,538.575,0.0
54159.0,STARLINK-5294,PAYLOAD,2023-02-24 04:35:19,15.08882431,0.0001578,53.2161,314.6575,80.2828,279.8342,0.00159,0.00025137,0.0,0 STARLINK-5294,1 54159U 22141C   23055.19119643  .00025137  00000-0  15900-2 0  9998,2 54159  53.2161 314.6575 0001578  80.2828 279.8342 15.08882431 18222,6917.751,95.435,540.707,538.524,0.0
54159.0,STARLINK-5294,PAYLOAD,2023-02-24 18:53:47,15.08849953,0.0001465,53.2162,311.9814,93.2526,266.8633,0.00014249,1.981e-05,0.0,0 STARLINK-5294,1 54159U 22141C   23055.78735911  .00001981  00000-0  14249-3 0  9992,2 54159  53.2162 311.9814 0001465  93.2526 266.8633 15.08849953 18314,6917.85,95.437,540.728,538.702,0.0
54159.0,STARLINK-5294,PAYLOAD,2023-02-24 20:29:11,15.08847498,0.0001485,53.2162,311.6843,95.0977,265.0185,0.00080343,0.00012524,0.0,0 STARLINK-5294,1 54159U 22141C   23055.85359973  .00012524  00000-0  80343-3 0  9993,2 54159  53.2162 311.6843 0001485  95.0977 265.0185 15.08847498 18321,6917.857,95.437,540.75,538.695,0.0
54159.0,STARLINK-5294,PAYLOAD,2023-02-24 23:39:57,15.08845659,0.000147,53.2161,311.0897,92.1208,267.9952,0.00098923,0.00015493,0.0,0 STARLINK-5294,1 54159U 22141C   23055.98607990  .00015493  00000-0  98923-3 0  9993,2 54159  53.2161 311.0897 0001470  92.1208 267.9952 15.08845659 18344,6917.863,95.437,540.745,538.711,0.0
54159.0,STARLINK-5294,PAYLOAD,2023-02-25 20:19:58,15.08850763,0.0001388,53.2162,307.2236,108.4868,251.6275,0.0015759,0.00024889,0.0,0 STARLINK-5294,1 54159U 22141C   23056.84720435  .00024889  00000-0  15759-2 0  9993,2 54159  53.2162 307.2236 0001388 108.4868 251.6275 15.08850763 18474,6917.847,95.437,540.673,538.752,0.0
54159.0,STARLINK-5294,PAYLOAD,2023-02-25 23:30:44,15.08848793,0.0001442,53.2162,306.6285,90.3381,269.7776,0.0012315,0.0001937,0.0,0 STARLINK-5294,1 54159U 22141C   23056.97968481  .00019370  00000-0  12315-2 0  9996,2 54159  53.2162 306.6285 0001442  90.3381 269.7776 15.08848793 18499,6917.854,95.437,540.716,538.721,0.0
54159.0,STARLINK-5294,PAYLOAD,2023-02-26 16:59:59,15.08853085,0.0001402,53.216,303.3586,95.3715,264.7437,0.00065829,0.00010208,0.0,0 STARLINK-5294,1 54159U 22141C   23057.70832186  .00010208  00000-0  65829-3 0  9990,2 54159  53.2160 303.3586 0001402  95.3715 264.7437 15.08853085 18609,6917.84,95.437,540.675,538.736,0.0
54159.0,STARLINK-5294,PAYLOAD,2023-02-27 02:32:17,15.08865964,0.0001377,53.2165,301.5737,92.3439,267.771,0.0007583,0.00011809,0.0,0 STARLINK-5294,1 54159U 22141C   23058.10575517  .00011809  00000-0  75830-3 0  9998,2 54159  53.2165 301.5737 0001377  92.3439 267.7710 15.08865964 18665,6917.801,95.436,540.619,538.713,0.0
54159.0,STARLINK-5294,PAYLOAD,2023-02-27 18:26:08,15.08855496,0.0001517,53.217,298.6023,96.0614,264.0551,0.00051769,7.964e-05,0.0,0 STARLINK-5294,1 54159U 22141C   23058.76815844  .00007964  00000-0  51769-3 0  9992,2 54159  53.2170 298.6023 0001517  96.0614 264.0551 15.08855496 18760,6917.833,95.437,540.747,538.649,0.0
54159.0,STARLINK-5294,PAYLOAD,2023-02-28 00:47:41,15.08852753,0.0001765,53.2164,297.4127,86.1806,273.9388,0.00067807,0.00010524,0.0,0 STARLINK-5294,1 54159U 22141C   23059.03311947  .00010524  00000-0  67807-3 0  9994,2 54159  53.2164 297.4127 0001765  86.1806 273.9388 15.08852753 18808,6917.841,95.437,540.927,538.485,0.0
54159.0,STARLINK-5294,PAYLOAD,2023-02-28 21:27:43,15.08817712,0.0001222,53.2161,293.5444,146.1882,213.9189,0.00045033,6.882e-05,0.0,0 STARLINK-5294,1 54159U 22141C   23059.89425116  .00006882  00000-0  45033-3 0  9991,2 54159  53.2161 293.5444 0001222 146.1882 213.9189 15.08817712 18936,6917.949,95.439,540.659,538.968,0.0
54159.0,STARLINK-5294,PAYLOAD,2023-02-28 23:03:06,15.08814301,0.0001353,53.2162,293.2469,149.6845,210.4226,0.00041035,6.244e-05,0.0,0 STARLINK-5294,1 54159U 22141C   23059.96049265  .00006244  00000-0  41035-3 0  9996,2 54159  53.2162 293.2469 0001353 149.6845 210.4226 15.08814301 18949,6917.959,95.439,540.76,538.888,0.0
54159.0,STARLINK-5294,PAYLOAD,2023-03-01 18:07:44,15.08839486,0.0001134,53.2143,289.6782,166.7425,193.3597,0.00079117,0.00012326,0.0,0 STARLINK-5294,1 54159U 22141C   23060.75537590  .00012326  00000-0  79117-3 0  9998,2 54159  53.2143 289.6782 0001134 166.7425 193.3597 15.08839486 19061,6917.882,95.438,540.531,538.962,0.0
54159.0,STARLINK-5294,PAYLOAD,2023-03-01 21:18:30,15.08847513,6.39e-05,53.2147,289.0843,119.3591,240.7465,0.0010535,0.00016522,0.0,0 STARLINK-5294,1 54159U 22141C   23060.88785755  .00016522  00000-0  10535-2 0  9990,2 54159  53.2147 289.0843 0000639 119.3591 240.7465 15.08847513 19087,6917.857,95.437,540.164,539.28,0.0
54159.0,STARLINK-5294,PAYLOAD,2023-03-02 19:33:54,15.08859776,5.85e-05,53.2155,284.9206,102.4273,257.6784,0.00068583,0.0001065,0.0,0 STARLINK-5294,1 54159U 22141C   23061.81521291  .00010650  00000-0  68583-3 0  9990,2 54159  53.2155 284.9206 0000585 102.4273 257.6784 15.08859776 19224,6917.82,95.436,540.09,539.28,0.0
54159.0,STARLINK-5294,PAYLOAD,2023-03-03 00:20:03,15.08866567,5.79e-05,53.2157,284.0283,112.6249,247.4804,0.00099188,0.00015545,0.0,0 STARLINK-5294,1 54159U 22141C   23062.01393006  .00015545  00000-0  99188-3 0  9997,2 54159  53.2157 284.0283 0000579 112.6249 247.4804 15.08866567 19250,6917.799,95.436,540.065,539.264,0.0
54159.0,STARLINK-5294,PAYLOAD,2023-03-03 14:38:31,15.08861285,6.35e-05,53.2154,281.354,50.4833,309.6215,0.00099113,0.0001553,0.0,0 STARLINK-5294,1 54159U 22141C   23062.61008900  .00015530  00000-0  99113-3 0  9991,2 54159  53.2154 281.3540 0000635  50.4833 309.6215 15.08861285 19343,6917.815,95.436,540.12,539.241,0.0
54159.0,STARLINK-5294,PAYLOAD,2023-03-03 21:00:03,15.08868532,7.65e-05,53.2156,280.1643,57.3848,302.7218,0.0011625,0.00018276,0.0,0 STARLINK-5294,1 54159U 22141C   23062.87504571  .00018276  00000-0  11625-2 0  9995,2 54159  53.2156 280.1643 0000765  57.3848 302.7218 15.08868532 19385,6917.793,95.436,540.187,539.129,0.0
54159.0,STARLINK-5294,PAYLOAD,2023-03-04 14:29:18,15.08846218,6.63e-05,53.2162,276.8912,85.2696,274.8372,0.0005337,8.218e-05,0.0,0 STARLINK-5294,1 54159U 22141C   23063.60368632  .00008218  00000-0  53370-3 0  9992,2 54159  53.2162 276.8912 0000663  85.2696 274.8372 15.08846218 19490,6917.861,95.437,540.185,539.268,0.0
54159.0,STARLINK-5294,PAYLOAD,2023-03-04 20:50:51,15.08840524,6.75e-05,53.2164,275.7016,83.1756,276.9313,0.00038872,5.904e-05,0.0,0 STARLINK-5294,1 54159U 22141C   23063.86864804  .00005904  00000-0  38872-3 0  9991,2 54159  53.2164 275.7016 0000675  83.1756 276.9313 15.08840524 19539,6917.879,95.438,540.211,539.277,0.0
54159.0,STARLINK-5294,PAYLOAD,2023-03-04 22:26:14,15.08840539,7.79e-05,53.2158,275.4038,85.2297,274.8784,0.00036601,5.542e-05,0.0,0 STARLINK-5294,1 54159U 22141C   23063.93488817  .00005542  00000-0  36601-3 0  9991,2 54159  53.2158 275.4038 0000779  85.2297 274.8784 15.08840539 19547,6917.879,95.438,540.283,539.205,0.0
54159.0,STARLINK-5294,PAYLOAD,2023-03-05 20:41:38,15.08842945,7.87e-05,53.2154,271.2426,81.9998,278.1083,0.00052073,8.01e-05,0.0,0 STARLINK-5294,1 54159U 22141C   23064.86225233  .00008010  00000-0  52073-3 0  9999,2 54159  53.2154 271.2426 0000787  81.9998 278.1083 15.08842945 19685,6917.871,95.437,540.281,539.192,0.0
54159.0,STARLINK-5294,PAYLOAD,2023-03-05 23:52:24,15.08853806,8.72e-05,53.2154,270.6466,86.3762,273.733,0.00070503,0.00010955,0.0,0 STARLINK-5294,1 54159U 22141C   23064.99473047  .00010955  00000-0  70503-3 0  9990,2 54159  53.2154 270.6466 0000872  86.3762 273.7330 15.08853806 19702,6917.838,95.437,540.306,539.1,0.0
54159.0,STARLINK-5294,PAYLOAD,2023-03-06 20:32:25,15.08844217,0.0001034,53.2156,266.7827,89.9318,270.1792,0.00029499,4.411e-05,0.0,0 STARLINK-5294,1 54159U 22141C   23065.85585364  .00004411  00000-0  29499-3 0  9990,2 54159  53.2156 266.7827 0001034  89.9318 270.1792 15.08844217 19831,6917.867,95.437,540.448,539.017,0.0
54159.0,STARLINK-5294,PAYLOAD,2023-03-07 06:04:44,15.08837826,0.0001854,53.215,264.9964,90.3893,269.7312,3.9231e-05,3.36e-06,0.0,0 STARLINK-5294,1 54159U 22141C   23066.25329645  .00000336  00000-0  39231-4 0  9991,2 54159  53.2150 264.9964 0001854  90.3893 269.7312 15.08837826 19897,6917.887,95.438,541.035,538.469,0.0
